******** Week 963 almanac for PRN-19 ********
ID:                         19
Health:                     000
Eccentricity:               0.9707450867E-002
Time of Applicability(s):  61440.0000
Orbital Inclination(rad):   0.9791615085
Rate of Right Ascen(r/s):  -0.7828897534E-008
SQRT(A)  (m 1/2):           5153.653809
Right Ascen at Week(rad):  -0.1698514459E+001
Argument of Perigee(rad):   1.119743058
Mean Anom(rad):             0.3267566332E+000
Af0(s):                    -0.4596710205E-003
Af1(s/s):                   0.3637978807E-011
week:                        963

******** Week 963 almanac for PRN-20 ********
ID:                         20
Health:                     000
Eccentricity:               0.4488945007E-002
Time of Applicability(s):  61440.0000
Orbital Inclination(rad):   0.9283064501
Rate of Right Ascen(r/s):  -0.8206056101E-008
SQRT(A)  (m 1/2):           5153.725098
Right Ascen at Week(rad):   0.1946784905E+000
Argument of Perigee(rad):   1.779934908
Mean Anom(rad):             0.2525651056E+001
Af0(s):                     0.4997253418E-003
Af1(s/s):                   0.0000000000E+000
week:                        963

******** Week 963 almanac for PRN-21 ********
ID:                         21
Health:                     000
Eccentricity:               0.2439212799E-001
Time of Applicability(s):  61440.0000
Orbital Inclination(rad):   0.9426096226
Rate of Right Ascen(r/s):  -0.8388920861E-008
SQRT(A)  (m 1/2):           5153.708496
Right Ascen at Week(rad):  -0.7931530804E+000
Argument of Perigee(rad):  -1.598516588
Mean Anom(rad):            -0.2328164137E+000
Af0(s):                    -0.4339218140E-003
Af1(s/s):                   0.3637978807E-011
week:                        963

******** Week 963 almanac for PRN-22 ********
ID:                         22
Health:                     000
Eccentricity:               0.7254600525E-002
Time of Applicability(s):  61440.0000
Orbital Inclination(rad):   0.9250047962
Rate of Right Ascen(r/s):  -0.8217485148E-008
SQRT(A)  (m 1/2):           5153.542969
Right Ascen at Week(rad):   0.2450193507E+000
Argument of Perigee(rad):  -1.617171907
Mean Anom(rad):             0.3018379467E+001
Af0(s):                    -0.2803802490E-003
Af1(s/s):                  -0.1455191523E-010
week:                        963

******** Week 963 almanac for PRN-23 ********
ID:                         23
Health:                     000
Eccentricity:               0.1194572449E-001
Time of Applicability(s):  61440.0000
Orbital Inclination(rad):   0.9434365341
Rate of Right Ascen(r/s):  -0.8011762293E-008
SQRT(A)  (m 1/2):           5153.547363
Right Ascen at Week(rad):   0.1334244954E+001
Argument of Perigee(rad):  -2.399238830
Mean Anom(rad):             0.2331438452E+001
Af0(s):                    -0.2193450928E-003
Af1(s/s):                   0.0000000000E+000
week:                        963

******** Week 963 almanac for PRN-24 ********
ID:                         24
Health:                     000
Eccentricity:               0.6777286530E-002
Time of Applicability(s):  61440.0000
Orbital Inclination(rad):   0.9425736699
Rate of Right Ascen(r/s):  -0.8354633718E-008
SQRT(A)  (m 1/2):           5153.595215
Right Ascen at Week(rad):   0.2355451468E+001
Argument of Perigee(rad):   0.519280959
Mean Anom(rad):             0.1748403663E+001
Af0(s):                    -0.4577636719E-004
Af1(s/s):                   0.0000000000E+000
week:                        963

******** Week 963 almanac for PRN-25 ********
ID:                         25
Health:                     000
Eccentricity:               0.7120609283E-002
Time of Applicability(s):  61440.0000
Orbital Inclination(rad):   0.9755602489
Rate of Right Ascen(r/s):  -0.7760323249E-008
SQRT(A)  (m 1/2):           5153.645996
Right Ascen at Week(rad):  -0.2838715712E+001
Argument of Perigee(rad):   0.808349452
Mean Anom(rad):            -0.2143498467E+000
Af0(s):                    -0.5331039429E-003
Af1(s/s):                  -0.7275957614E-011
week:                        963

******** Week 963 almanac for PRN-26 ********
ID:                         26
Health:                     000
Eccentricity:               0.2639770508E-002
Time of Applicability(s):  61440.0000
Orbital Inclination(rad):   0.9571644637
Rate of Right Ascen(r/s):  -0.7954617056E-008
SQRT(A)  (m 1/2):           5153.556152
Right Ascen at Week(rad):  -0.2858639111E+001
Argument of Perigee(rad):   0.003040997
Mean Anom(rad):            -0.7107607852E+000
Af0(s):                    -0.2622604370E-003
Af1(s/s):                   0.1455191523E-010
week:                        963

******** Week 963 almanac for PRN-27 ********
ID:                         27
Health:                     000
Eccentricity:               0.5436420441E-002
Time of Applicability(s):  61440.0000
Orbital Inclination(rad):   0.9765429554
Rate of Right Ascen(r/s):  -0.7828897534E-008
SQRT(A)  (m 1/2):           5153.633789
Right Ascen at Week(rad):  -0.1799214904E+001
Argument of Perigee(rad):   0.351177113
Mean Anom(rad):            -0.2533616446E+001
Af0(s):                     0.3662109375E-003
Af1(s/s):                   0.0000000000E+000
week:                        963

******** Week 963 almanac for PRN-28 ********
ID:                         28
Health:                     000
Eccentricity:               0.1977252960E-001
Time of Applicability(s):  61440.0000
Orbital Inclination(rad):   0.9871130417
Rate of Right Ascen(r/s):  -0.7611745631E-008
SQRT(A)  (m 1/2):           5153.631836
Right Ascen at Week(rad):  -0.2757163062E+001
Argument of Perigee(rad):  -1.528218623
Mean Anom(rad):            -0.1719393225E+001
Af0(s):                     0.6856918335E-003
Af1(s/s):                   0.3637978807E-011
week:                        963

******** Week 963 almanac for PRN-29 ********
ID:                         29
Health:                     000
Eccentricity:               0.4749298096E-003
Time of Applicability(s):  61440.0000
Orbital Inclination(rad):   0.9829605078
Rate of Right Ascen(r/s):  -0.7760323249E-008
SQRT(A)  (m 1/2):           5153.697754
Right Ascen at Week(rad):  -0.1735322882E+001
Argument of Perigee(rad):   0.728688437
Mean Anom(rad):            -0.1171030672E+001
Af0(s):                     0.5016326904E-003
Af1(s/s):                  -0.7275957614E-011
week:                        963

******** Week 963 almanac for PRN-30 ********
ID:                         30
Health:                     000
Eccentricity:               0.3064632416E-002
Time of Applicability(s):  61440.0000
Orbital Inclination(rad):   0.9452281757
Rate of Right Ascen(r/s):  -0.8320346576E-008
SQRT(A)  (m 1/2):           5153.511719
Right Ascen at Week(rad):   0.2448480138E+001
Argument of Perigee(rad):  -3.113239101
Mean Anom(rad):             0.9729838653E+000
Af0(s):                     0.1068115234E-003
Af1(s/s):                  -0.3637978807E-011
week:                        963

******** Week 963 almanac for PRN-31 ********
ID:                         31
Health:                     000
Eccentricity:               0.8839607239E-002
Time of Applicability(s):  61440.0000
Orbital Inclination(rad):   0.9642531327
Rate of Right Ascen(r/s):  -0.8126052768E-008
SQRT(A)  (m 1/2):           5153.544434
Right Ascen at Week(rad):   0.2425282423E+001
Argument of Perigee(rad):  -0.159949330
Mean Anom(rad):             0.6083653206E+000
Af0(s):                     0.1440048218E-003
Af1(s/s):                  -0.3637978807E-011
week:                        963

******** Week 963 almanac for PRN-32 ********
ID:                         32
Health:                     000
Eccentricity:               0.1640796661E-002
Time of Applicability(s):  61440.0000
Orbital Inclination(rad):   0.9570086688
Rate of Right Ascen(r/s):  -0.7897471819E-008
SQRT(A)  (m 1/2):           5153.580566
Right Ascen at Week(rad):   0.1339252862E+001
Argument of Perigee(rad):  -2.695416215
Mean Anom(rad):            -0.1796528191E+001
Af0(s):                    -0.5331039429E-003
Af1(s/s):                   0.0000000000E+000
week:                        963